[{"OBJECT_NAME":"STARLINK-4197","OBJECT_ID":"2022-062V","EPOCH":"2026-03-09T07:25:34.616352","MEAN_MOTION":15.08822791,"ECCENTRICITY":0.00013623,"INCLINATION":53.2192,"RA_OF_ASC_NODE":25.8259,"ARG_OF_PERICENTER":89.8228,"MEAN_ANOMALY":270.292,"EPHEMERIS_TYPE":0,"CLASSIFICATION_TYPE":"U","NORAD_CAT_ID":52849,"ELEMENT_SET_NO":999,"REV_AT_EPOCH":20586,"BSTAR":0.00013902641,"MEAN_MOTION_DOT":1.924e-5,"MEAN_MOTION_DDOT":0},{"OBJECT_NAME":"JILIN-01 KUANFU 02B 3","OBJECT_ID":"2024-169C","EPOCH":"2026-03-09T22:06:48.862368","MEAN_MOTION":15.0924242,"ECCENTRICITY":0.00160506,"INCLINATION":97.5557,"RA_OF_ASC_NODE":159.7436,"ARG_OF_PERICENTER":304.8201,"MEAN_ANOMALY":55.1517,"EPHEMERIS_TYPE":0,"CLASSIFICATION_TYPE":"U","NORAD_CAT_ID":61191,"ELEMENT_SET_NO":999,"REV_AT_EPOCH":8085,"BSTAR":0.00039569069,"MEAN_MOTION_DOT":6.253e-5,"MEAN_MOTION_DDOT":0}]
